[
    {
        "Altitude(m)": 611965.2310100538,
        "Argument of Periapsis(deg)": 0.0,
        "Eccentricity": 0.0,
        "Inclination(deg)": 60.0,
        "Latitude(deg)": 59.14029995375024,
        "Longitude(deg)": 63.96970897138408,
        "Mean Anomaly(deg)": 81.8182,
        "RAAN(deg)": 90.0,
        "Satellite Name": "Test1 401",
        "Satellite Number": 401,
        "Semi-Major Axis(m)": 6980739.136638005,
        "Time(s)": 0
    },
    {
        "Altitude(m)": 611995.8568081807,
        "Argument of Periapsis(deg)": 0.00010418945913296404,
        "Eccentricity": 0.0,
        "Inclination(deg)": 60.0,
        "Latitude(deg)": 59.283401200195144,
        "Longitude(deg)": 65.10307514352397,
        "Mean Anomaly(deg)": 82.43830614546185,
        "RAAN(deg)": 89.99957995086027,
        "Satellite Name": "Test1 401",
        "Satellite Number": 401,
        "Semi-Major Axis(m)": 6980739.136638005,
        "Time(s)": 10
    }
]